[{"OBJECT_NAME":"SL-8 R/B","OBJECT_ID":"1979-089B","EPOCH":"2026-03-31T20:54:19.697184","MEAN_MOTION":14.42365449,"ECCENTRICITY":0.0016648,"INCLINATION":74.0694,"RA_OF_ASC_NODE":49.9798,"ARG_OF_PERICENTER":219.7067,"MEAN_ANOMALY":140.2872,"EPHEMERIS_TYPE":0,"CLASSIFICATION_TYPE":"U","NORAD_CAT_ID":11574,"ELEMENT_SET_NO":999,"REV_AT_EPOCH":43930,"BSTAR":0.00014094,"MEAN_MOTION_DOT":4.4e-6,"MEAN_MOTION_DDOT":0},{"OBJECT_NAME":"SL-14 R/B","OBJECT_ID":"1980-005B","EPOCH":"2026-03-31T19:23:29.959296","MEAN_MOTION":14.9095625,"ECCENTRICITY":0.0017253,"INCLINATION":82.511,"RA_OF_ASC_NODE":286.2497,"ARG_OF_PERICENTER":89.7719,"MEAN_ANOMALY":270.5477,"EPHEMERIS_TYPE":0,"CLASSIFICATION_TYPE":"U","NORAD_CAT_ID":11672,"ELEMENT_SET_NO":999,"REV_AT_EPOCH":47978,"BSTAR":7.5023e-5,"MEAN_MOTION_DOT":7.68e-6,"MEAN_MOTION_DDOT":0},{"OBJECT_NAME":"SL-8 R/B","OBJECT_ID":"1981-003B","EPOCH":"2026-03-31T18:46:31.696320","MEAN_MOTION":15.11973503,"ECCENTRICITY":0.0260492,"INCLINATION":82.9324,"RA_OF_ASC_NODE":269.5782,"ARG_OF_PERICENTER":101.8424,"MEAN_ANOMALY":261.2148,"EPHEMERIS_TYPE":0,"CLASSIFICATION_TYPE":"U","NORAD_CAT_ID":12139,"ELEMENT_SET_NO":999,"REV_AT_EPOCH":31801,"BSTAR":0.0006885,"MEAN_MOTION_DOT":0.00027593,"MEAN_MOTION_DDOT":0},{"OBJECT_NAME":"SL-3 R/B","OBJECT_ID":"1981-046B","EPOCH":"2026-03-31T20:14:58.569216","MEAN_MOTION":15.42547494,"ECCENTRICITY":0.0018132,"INCLINATION":81.228,"RA_OF_ASC_NODE":263.1254,"ARG_OF_PERICENTER":303.5723,"MEAN_ANOMALY":56.3788,"EPHEMERIS_TYPE":0,"CLASSIFICATION_TYPE":"U","NORAD_CAT_ID":12465,"ELEMENT_SET_NO":999,"REV_AT_EPOCH":44184,"BSTAR":0.00032771,"MEAN_MOTION_DOT":0.00014345,"MEAN_MOTION_DDOT":0},{"OBJECT_NAME":"SL-3 R/B","OBJECT_ID":"1981-103B","EPOCH":"2026-03-31T19:17:01.455648","MEAN_MOTION":15.21642962,"ECCENTRICITY":0.0012948,"INCLINATION":81.1615,"RA_OF_ASC_NODE":187.4912,"ARG_OF_PERICENTER":207.5652,"MEAN_ANOMALY":152.4895,"EPHEMERIS_TYPE":0,"CLASSIFICATION_TYPE":"U","NORAD_CAT_ID":12904,"ELEMENT_SET_NO":999,"REV_AT_EPOCH":97659,"BSTAR":0.00031956,"MEAN_MOTION_DOT":7.26e-5,"MEAN_MOTION_DDOT":0},{"OBJECT_NAME":"SL-3 R/B","OBJECT_ID":"1982-013B","EPOCH":"2026-03-31T19:15:57.070368","MEAN_MOTION":15.22214787,"ECCENTRICITY":0.0023607,"INCLINATION":81.173,"RA_OF_ASC_NODE":134.8498,"ARG_OF_PERICENTER":105.1051,"MEAN_ANOMALY":255.2795,"EPHEMERIS_TYPE":0,"CLASSIFICATION_TYPE":"U","NORAD_CAT_ID":13068,"ELEMENT_SET_NO":999,"REV_AT_EPOCH":40771,"BSTAR":0.00023563,"MEAN_MOTION_DOT":5.48e-5,"MEAN_MOTION_DDOT":0},{"OBJECT_NAME":"SL-3 R/B","OBJECT_ID":"1982-039B","EPOCH":"2026-03-31T18:53:50.419968","MEAN_MOTION":15.10207547,"ECCENTRICITY":0.0028431,"INCLINATION":81.1566,"RA_OF_ASC_NODE":190.4814,"ARG_OF_PERICENTER":251.1179,"MEAN_ANOMALY":108.6964,"EPHEMERIS_TYPE":0,"CLASSIFICATION_TYPE":"U","NORAD_CAT_ID":13154,"ELEMENT_SET_NO":999,"REV_AT_EPOCH":38497,"BSTAR":0.00021681,"MEAN_MOTION_DOT":3.598e-5,"MEAN_MOTION_DDOT":0},{"OBJECT_NAME":"SL-3 R/B","OBJECT_ID":"1982-079B","EPOCH":"2026-03-31T20:17:09.064320","MEAN_MOTION":15.25095357,"ECCENTRICITY":0.0025496,"INCLINATION":81.1482,"RA_OF_ASC_NODE":166.9165,"ARG_OF_PERICENTER":92.0178,"MEAN_ANOMALY":268.3976,"EPHEMERIS_TYPE":0,"CLASSIFICATION_TYPE":"U","NORAD_CAT_ID":13403,"ELEMENT_SET_NO":999,"REV_AT_EPOCH":38107,"BSTAR":0.00025871,"MEAN_MOTION_DOT":6.56e-5,"MEAN_MOTION_DDOT":0},{"OBJECT_NAME":"SL-14 R/B","OBJECT_ID":"1982-092B","EPOCH":"2026-03-31T19:06:10.555200","MEAN_MOTION":14.86686751,"ECCENTRICITY":0.0019209,"INCLINATION":82.5654,"RA_OF_ASC_NODE":120.7186,"ARG_OF_PERICENTER":224.6776,"MEAN_ANOMALY":243.492,"EPHEMERIS_TYPE":0,"CLASSIFICATION_TYPE":"U","NORAD_CAT_ID":13553,"ELEMENT_SET_NO":999,"REV_AT_EPOCH":33221,"BSTAR":6.2832e-5,"MEAN_MOTION_DOT":5.84e-6,"MEAN_MOTION_DDOT":0},{"OBJECT_NAME":"SL-3 R/B","OBJECT_ID":"1983-010B","EPOCH":"2026-03-31T15:03:09.639360","MEAN_MOTION":15.47100022,"ECCENTRICITY":0.0015724,"INCLINATION":81.1051,"RA_OF_ASC_NODE":335.3396,"ARG_OF_PERICENTER":335.5663,"MEAN_ANOMALY":24.4835,"EPHEMERIS_TYPE":0,"CLASSIFICATION_TYPE":"U","NORAD_CAT_ID":13819,"ELEMENT_SET_NO":999,"REV_AT_EPOCH":36133,"BSTAR":0.00034953,"MEAN_MOTION_DOT":0.00017834,"MEAN_MOTION_DDOT":0},{"OBJECT_NAME":"SL-3 R/B","OBJECT_ID":"1983-075B","EPOCH":"2026-03-31T19:09:37.589472","MEAN_MOTION":15.38947308,"ECCENTRICITY":0.002255,"INCLINATION":97.6132,"RA_OF_ASC_NODE":96.2215,"ARG_OF_PERICENTER":146.4305,"MEAN_ANOMALY":213.8373,"EPHEMERIS_TYPE":0,"CLASSIFICATION_TYPE":"U","NORAD_CAT_ID":14208,"ELEMENT_SET_NO":999,"REV_AT_EPOCH":33355,"BSTAR":0.00034678,"MEAN_MOTION_DOT":0.00013403,"MEAN_MOTION_DDOT":0},{"OBJECT_NAME":"COSMOS 1536","OBJECT_ID":"1984-013A","EPOCH":"2026-03-31T17:11:07.379232","MEAN_MOTION":15.2413307,"ECCENTRICITY":0.001371,"INCLINATION":82.541,"RA_OF_ASC_NODE":85.9435,"ARG_OF_PERICENTER":197.2286,"MEAN_ANOMALY":162.8487,"EPHEMERIS_TYPE":0,"CLASSIFICATION_TYPE":"U","NORAD_CAT_ID":14699,"ELEMENT_SET_NO":999,"REV_AT_EPOCH":27597,"BSTAR":0.00038878,"MEAN_MOTION_DOT":9.51e-5,"MEAN_MOTION_DDOT":0},{"OBJECT_NAME":"SL-14 R/B","OBJECT_ID":"1984-027B","EPOCH":"2026-03-31T17:05:44.402208","MEAN_MOTION":14.86000588,"ECCENTRICITY":0.0016498,"INCLINATION":82.5422,"RA_OF_ASC_NODE":224.3569,"ARG_OF_PERICENTER":259.673,"MEAN_ANOMALY":100.2627,"EPHEMERIS_TYPE":0,"CLASSIFICATION_TYPE":"U","NORAD_CAT_ID":14820,"ELEMENT_SET_NO":999,"REV_AT_EPOCH":25090,"BSTAR":8.0869e-5,"MEAN_MOTION_DOT":7.32e-6,"MEAN_MOTION_DDOT":0},{"OBJECT_NAME":"SL-8 R/B","OBJECT_ID":"1985-006B","EPOCH":"2026-03-31T08:39:29.034144","MEAN_MOTION":14.37799045,"ECCENTRICITY":0.0017585,"INCLINATION":74.0455,"RA_OF_ASC_NODE":221.2693,"ARG_OF_PERICENTER":132.7551,"MEAN_ANOMALY":257.7416,"EPHEMERIS_TYPE":0,"CLASSIFICATION_TYPE":"U","NORAD_CAT_ID":15483,"ELEMENT_SET_NO":999,"REV_AT_EPOCH":15714,"BSTAR":0.00013277242,"MEAN_MOTION_DOT":3.75e-6,"MEAN_MOTION_DDOT":0},{"OBJECT_NAME":"SL-12 R/B(2)","OBJECT_ID":"1985-042D","EPOCH":"2026-03-31T07:23:30.312672","MEAN_MOTION":14.21988631,"ECCENTRICITY":0.0032852,"INCLINATION":71.1093,"RA_OF_ASC_NODE":42.0527,"ARG_OF_PERICENTER":92.2715,"MEAN_ANOMALY":59.5144,"EPHEMERIS_TYPE":0,"CLASSIFICATION_TYPE":"U","NORAD_CAT_ID":15772,"ELEMENT_SET_NO":999,"REV_AT_EPOCH":11746,"BSTAR":6.3875e-5,"MEAN_MOTION_DOT":9.4e-7,"MEAN_MOTION_DDOT":0},{"OBJECT_NAME":"SL-14 R/B","OBJECT_ID":"1985-069B","EPOCH":"2026-03-31T16:34:10.015680","MEAN_MOTION":14.86457372,"ECCENTRICITY":0.0020167,"INCLINATION":82.5305,"RA_OF_ASC_NODE":4.2512,"ARG_OF_PERICENTER":117.2694,"MEAN_ANOMALY":243.058,"EPHEMERIS_TYPE":0,"CLASSIFICATION_TYPE":"U","NORAD_CAT_ID":15945,"ELEMENT_SET_NO":999,"REV_AT_EPOCH":17610,"BSTAR":7.118e-5,"MEAN_MOTION_DOT":6.56e-6,"MEAN_MOTION_DDOT":0},{"OBJECT_NAME":"SL-16 R/B","OBJECT_ID":"1985-097B","EPOCH":"2026-03-31T18:10:27.848928","MEAN_MOTION":14.16603272,"ECCENTRICITY":0.0009366,"INCLINATION":71.0007,"RA_OF_ASC_NODE":94.093,"ARG_OF_PERICENTER":233.9145,"MEAN_ANOMALY":299.2322,"EPHEMERIS_TYPE":0,"CLASSIFICATION_TYPE":"U","NORAD_CAT_ID":16182,"ELEMENT_SET_NO":999,"REV_AT_EPOCH":9035,"BSTAR":-5.6794e-5,"MEAN_MOTION_DOT":-1.61e-6,"MEAN_MOTION_DDOT":0}]
